{
  "type": "FeatureCollection",
  "features": [
    {
      "type": "Feature",
      "properties": {
        "norad_id": 41877,
        "name": "RESOURCESAT-2A",
        "group": "resource",
        "lat": 61.269389313328126,
        "lon": -108.31710639613294,
        "alt_km": 814.6226053930823,
        "timestamp": "2025-12-11T10:53:15.542383+00:00",
        "meta_object_name": "RESOURCESAT-2A",
        "meta_object_id": "2016-074A",
        "meta_epoch": "2025-12-11T05:16:10.524000",
        "meta_mean_motion": 14.21597827,
        "meta_eccentricity": 0.000113,
        "meta_inclination": 98.7753,
        "meta_ra_of_asc_node": 55.0838,
        "meta_arg_of_pericenter": 262.6496,
        "meta_mean_anomaly": 97.4553,
        "meta_ephemeris_type": 0,
        "meta_classification_type": "U",
        "meta_norad_cat_id": 41877,
        "meta_element_set_no": 999,
        "meta_rev_at_epoch": 46759,
        "meta_bstar": 1.9333e-05,
        "meta_mean_motion_dot": -2e-08,
        "meta_mean_motion_ddot": 0,
        "tle_line1": "1 41877U 16074A   25345.21956625 -.00000002  00000+0  19333-4 0  9995",
        "tle_line2": "2 41877  98.7753  55.0838 0001130 262.6496  97.4553 14.21597827467597"
      },
      "geometry": {
        "type": "Point",
        "coordinates": [
          -108.31710639613294,
          61.269389313328126
        ]
      }
    },
    {
      "type": "Feature",
      "properties": {
        "norad_id": 41948,
        "name": "CARTOSAT-2D",
        "group": "resource",
        "lat": 31.97909626720585,
        "lon": 38.290932071273666,
        "alt_km": 508.5702488504421,
        "timestamp": "2025-12-11T10:53:15.542394+00:00",
        "meta_object_name": "CARTOSAT-2D",
        "meta_object_id": "2017-008A",
        "meta_epoch": "2025-12-11T04:25:22.387296",
        "meta_mean_motion": 15.19232405,
        "meta_eccentricity": 0.0004507,
        "meta_inclination": 97.4383,
        "meta_ra_of_asc_node": 42.7046,
        "meta_arg_of_pericenter": 168.3002,
        "meta_mean_anomaly": 191.8338,
        "meta_ephemeris_type": 0,
        "meta_classification_type": "U",
        "meta_norad_cat_id": 41948,
        "meta_element_set_no": 999,
        "meta_rev_at_epoch": 48903,
        "meta_bstar": 0.00041795,
        "meta_mean_motion_dot": 8.742e-05,
        "meta_mean_motion_ddot": 0,
        "tle_line1": "1 41948U 17008A   25345.18428689  .00008742  00000+0  41795-3 0  9996",
        "tle_line2": "2 41948  97.4383  42.7046 0004507 168.3002 191.8338 15.19232405489030"
      },
      "geometry": {
        "type": "Point",
        "coordinates": [
          38.290932071273666,
          31.97909626720585
        ]
      }
    },
    {
      "type": "Feature",
      "properties": {
        "norad_id": 42063,
        "name": "SENTINEL-2B",
        "group": "resource",
        "lat": 42.71496777943079,
        "lon": 49.912905041068115,
        "alt_km": 784.9281505008503,
        "timestamp": "2025-12-11T10:53:15.542405+00:00",
        "meta_object_name": "SENTINEL-2B",
        "meta_object_id": "2017-013A",
        "meta_epoch": "2025-12-11T03:58:21.374688",
        "meta_mean_motion": 14.30815043,
        "meta_eccentricity": 0.0001137,
        "meta_inclination": 98.5712,
        "meta_ra_of_asc_node": 57.633,
        "meta_arg_of_pericenter": 94.0003,
        "meta_mean_anomaly": 266.131,
        "meta_ephemeris_type": 0,
        "meta_classification_type": "U",
        "meta_norad_cat_id": 42063,
        "meta_element_set_no": 999,
        "meta_rev_at_epoch": 45775,
        "meta_bstar": 9.3405e-05,
        "meta_mean_motion_dot": 2.01e-06,
        "meta_mean_motion_ddot": 0,
        "tle_line1": "1 42063U 17013A   25345.16552517  .00000201  00000+0  93405-4 0  9995",
        "tle_line2": "2 42063  98.5712  57.6330 0001137  94.0003 266.1310 14.30815043457757"
      },
      "geometry": {
        "type": "Point",
        "coordinates": [
          49.912905041068115,
          42.71496777943079
        ]
      }
    },
    {
      "type": "Feature",
      "properties": {
        "norad_id": 42767,
        "name": "CARTOSAT-2E",
        "group": "resource",
        "lat": -55.77404001699603,
        "lon": 54.15561548120701,
        "alt_km": 514.2742239552008,
        "timestamp": "2025-12-11T10:53:15.542417+00:00",
        "meta_object_name": "CARTOSAT-2E",
        "meta_object_id": "2017-036C",
        "meta_epoch": "2025-12-11T04:48:47.515680",
        "meta_mean_motion": 15.19294702,
        "meta_eccentricity": 0.0002406,
        "meta_inclination": 97.4553,
        "meta_ra_of_asc_node": 42.8071,
        "meta_arg_of_pericenter": 242.5315,
        "meta_mean_anomaly": 117.5675,
        "meta_ephemeris_type": 0,
        "meta_classification_type": "U",
        "meta_norad_cat_id": 42767,
        "meta_element_set_no": 999,
        "meta_rev_at_epoch": 46960,
        "meta_bstar": 0.0003018,
        "meta_mean_motion_dot": 6.302e-05,
        "meta_mean_motion_ddot": 0,
        "tle_line1": "1 42767U 17036C   25345.20054995  .00006302  00000+0  30180-3 0  9991",
        "tle_line2": "2 42767  97.4553  42.8071 0002406 242.5315 117.5675 15.19294702469604"
      },
      "geometry": {
        "type": "Point",
        "coordinates": [
          54.15561548120701,
          -55.77404001699603
        ]
      }
    },
    {
      "type": "Feature",
      "properties": {
        "norad_id": 42920,
        "name": "FORMOSAT-5",
        "group": "resource",
        "lat": -47.230850062459176,
        "lon": 68.81713118926191,
        "alt_km": 722.2640040072147,
        "timestamp": "2025-12-11T10:53:15.542449+00:00",
        "meta_object_name": "FORMOSAT-5",
        "meta_object_id": "2017-049A",
        "meta_epoch": "2025-12-11T04:29:15.332064",
        "meta_mean_motion": 14.51003887,
        "meta_eccentricity": 0.0009945,
        "meta_inclination": 98.2454,
        "meta_ra_of_asc_node": 59.5368,
        "meta_arg_of_pericenter": 300.8229,
        "meta_mean_anomaly": 59.1987,
        "meta_ephemeris_type": 0,
        "meta_classification_type": "U",
        "meta_norad_cat_id": 42920,
        "meta_element_set_no": 999,
        "meta_rev_at_epoch": 43941,
        "meta_bstar": 0.00010712,
        "meta_mean_motion_dot": 3.8e-06,
        "meta_mean_motion_ddot": 0,
        "tle_line1": "1 42920U 17049A   25345.18698301  .00000380  00000+0  10712-3 0  9997",
        "tle_line2": "2 42920  98.2454  59.5368 0009945 300.8229  59.1987 14.51003887439415"
      },
      "geometry": {
        "type": "Point",
        "coordinates": [
          68.81713118926191,
          -47.230850062459176
        ]
      }
    },
    {
      "type": "Feature",
      "properties": {
        "norad_id": 42969,
        "name": "SENTINEL-5P",
        "group": "resource",
        "lat": 45.9875461594705,
        "lon": 113.25234217617911,
        "alt_km": 822.4741765122089,
        "timestamp": "2025-12-11T10:53:15.542464+00:00",
        "meta_object_name": "SENTINEL-5P",
        "meta_object_id": "2017-064A",
        "meta_epoch": "2025-12-10T13:57:44.045856",
        "meta_mean_motion": 14.1951665,
        "meta_eccentricity": 9.63e-05,
        "meta_inclination": 98.7782,
        "meta_ra_of_asc_node": 283.1851,
        "meta_arg_of_pericenter": 87.8705,
        "meta_mean_anomaly": 272.2581,
        "meta_ephemeris_type": 0,
        "meta_classification_type": "U",
        "meta_norad_cat_id": 42969,
        "meta_element_set_no": 999,
        "meta_rev_at_epoch": 42280,
        "meta_bstar": 0.00010287,
        "meta_mean_motion_dot": 1.73e-06,
        "meta_mean_motion_ddot": 0,
        "tle_line1": "1 42969U 17064A   25344.58175979  .00000173  00000+0  10287-3 0  9998",
        "tle_line2": "2 42969  98.7782 283.1851 0000963  87.8705 272.2581 14.19516650422805"
      },
      "geometry": {
        "type": "Point",
        "coordinates": [
          113.25234217617911,
          45.9875461594705
        ]
      }
    },
    {
      "type": "Feature",
      "properties": {
        "norad_id": 42987,
        "name": "SKYSAT-C11",
        "group": "resource",
        "lat": 15.445083960403755,
        "lon": 120.85126196534978,
        "alt_km": 425.34418602064034,
        "timestamp": "2025-12-11T10:53:15.542475+00:00",
        "meta_object_name": "SKYSAT-C11",
        "meta_object_id": "2017-068A",
        "meta_epoch": "2025-12-11T04:36:44.283744",
        "meta_mean_motion": 15.4734116,
        "meta_eccentricity": 9.85e-05,
        "meta_inclination": 97.4141,
        "meta_ra_of_asc_node": 122.6453,
        "meta_arg_of_pericenter": 104.9334,
        "meta_mean_anomaly": 255.2025,
        "meta_ephemeris_type": 0,
        "meta_classification_type": "U",
        "meta_norad_cat_id": 42987,
        "meta_element_set_no": 999,
        "meta_rev_at_epoch": 45407,
        "meta_bstar": 0.00062559,
        "meta_mean_motion_dot": 0.00031949,
        "meta_mean_motion_ddot": 0,
        "tle_line1": "1 42987U 17068A   25345.19217921  .00031949  00000+0  62559-3 0  9998",
        "tle_line2": "2 42987  97.4141 122.6453 0000985 104.9334 255.2025 15.47341160454070"
      },
      "geometry": {
        "type": "Point",
        "coordinates": [
          120.85126196534978,
          15.445083960403755
        ]
      }
    }
  ]
}